#aV2020 12 26  0  0  0.00000000     288 DD+AD WGS84 FIT  NGA
## 2137 518400.00000000   300.00000000 59209 0.0000000000000
+   32     1  2  3  4  5  6  7  8  9 10 11 12 13 14 15 16 17
+         18 19 20 21 22 23 24 25 26 27 28 29 30 31 32  0  0
+          0  0  0  0  0  0  0  0  0  0  0  0  0  0  0  0  0
+          0  0  0  0  0  0  0  0  0  0  0  0  0  0  0  0  0
+          0  0  0  0  0  0  0  0  0  0  0  0  0  0  0  0  0
++         2  2  2  2  2  2  2  2  2  2  2  2  2  2  2  2  2
++         2  2  2  2  2  2  2  2  2  2  2  2  2  2  2  0  0
++         0  0  0  0  0  0  0  0  0  0  0  0  0  0  0  0  0
++         0  0  0  0  0  0  0  0  0  0  0  0  0  0  0  0  0
++         0  0  0  0  0  0  0  0  0  0  0  0  0  0  0  0  0
%c cc cc ccc ccc cccc cccc cccc cccc ccccc ccccc ccccc ccccc
%c cc cc ccc ccc cccc cccc cccc cccc ccccc ccccc ccccc ccccc
%f  0.0000000  0.000000000  0.00000000000  0.000000000000000
%f  0.0000000  0.000000000  0.00000000000  0.000000000000000
%i    0    0    0    0      0      0      0      0         0
%i    0    0    0    0      0      0      0      0         0
/*      NGA, ST. LOUIS,MO.                                  
/*   EPHEMERIS COMPUTED FROM 2 DAYS OF DATA                 
/*   EPOCHA v5 SMOOTHER                                     
/*   G1762 IERS2010 SATAF SATAPC                            
*  2020 12 26 11 20  0.00000000
P  1  -9631.956500  19449.599245 -15313.764866    790.268003                    
V  1 -16513.105099   9760.525907  23467.985827     -0.056567                    
P  2  21735.418293 -14420.462672  -4333.607807   -558.831766                    
V  2  -3001.412257   6245.693688 -31138.187145     -0.043514                    
P  3   1237.651858  16352.551554 -20994.313946    -39.825420                    
V  3 -24440.659643 -10074.154224  -9226.159081     -0.098649                    
P  4  -1670.602218  25982.848178  -5110.927161   -167.587032                    
V  4  -3289.504778  -6278.294939 -30873.437227     -0.031670                    
P  5  18664.991547  -6086.731969  17821.924130    -29.340371                    
V  5  20618.924315  10059.992247 -17824.491809     -0.009781                    
P  6  20819.877693  -1648.306029 -16372.647403     -4.457964                    
V  6 -16009.278060  13421.890619 -21583.583828     -0.003536                    
P  7   6530.092463  14309.416058  21689.259530     -2.886505                    
V  7 -22163.678017  15163.608738  -3867.097912      0.149429                    
P  8  -6363.630077  22050.405925  13128.946670     -4.275363                    
V  8  -4307.689661 -16343.867066  25660.786826     -0.013778                    
P  9   7618.961146  24603.397058   6374.252303   -305.781607                    
V  9  -1945.044821   8496.044473 -30181.673171     -0.042916                    
P 10 -23888.349870 -11824.892722   1758.632370    -24.808413                    
V 10   2866.067549  -1314.325013  31634.523740     -0.087031                    
P 11 -10489.673833  24568.887118  -1988.917054    -70.697866                    
V 11  -4405.203373     34.627019  30316.486503      0.105659                    
P 12   3299.033204 -15028.546733 -21904.535687     21.676599                    
V 12  24135.933358  12498.076713  -4845.086691     -0.052379                    
P 13  12953.036341 -13957.074234  18329.830504     79.065074                    
V 13    970.986154  23609.767115  17277.753623      0.040275                    
P 14  22373.978402  13888.397662   3473.746308     73.242204                    
V 14  -5216.461778    555.934203  31314.039525      0.085922                    
P 15   3820.669458 -23174.717504  11692.385762   -180.669616                    
V 15   6862.069883  14457.469146  25998.181619      0.025916                    
P 16 -19386.390493   3077.048042  17879.310375   -255.871061                    
V 16 -19509.776010 -12145.929903 -18376.768278     -0.054843                    
P 17  13379.949092  11874.843423 -19201.018786    372.089817                    
V 17     93.199749  25287.229773  15341.926473      0.049820                    
P 18  -8050.539562 -12773.141120  21845.371965    336.089493                    
V 18  22827.589735 -15748.605290   -850.647371      0.033871                    
P 19  14748.248033   3884.903640 -22034.363163    -60.273739                    
V 19   -192.442661  27235.065175   4653.419012      0.050018                    
P 20 -17640.378697 -15042.349958  13133.014586    525.447964                    
V 20  16825.395230   2010.801558  24514.532948     -0.001688                    
P 21 -16077.898454  19584.659841  -6508.801456     81.122360                    
V 21  -9263.874492   3487.267431  30403.831751      0.034525                    
P 22  -7743.269707  13868.248445 -21078.709375   -709.049892                    
V 22 -25771.966770  -9157.948552   3570.582009      0.062694                    
P 23 -17832.505474 -15999.954960  11474.123740    112.735313                    
V 23  14379.726501   3420.172145  27019.234320      0.024183                    
P 24  12094.971166 -20771.200910 -11088.264954      4.608709                    
V 24  12824.540402  -6377.105328  26881.352885     -0.005960                    
P 25 -11254.883221 -17683.652433 -16720.180370     47.187766                    
V 25  19510.465683   6938.682634 -20510.495901      0.073340                    
P 26 -25047.902345  -3219.886199   8599.027921     20.308449                    
V 26  -9103.306722  -6689.225424 -28622.714831      0.058330                    
P 27 -12669.013707  10929.111868  20386.031827    -42.904125                    
V 27  -3853.955766 -26013.445759  11810.474669     -0.079366                    
P 28  22904.150680  13245.207493    554.932245    638.172445                    
V 28  -1246.704110   2192.830781  32184.019166     -0.049957                    
P 29  -4565.881020 -25548.126337   5506.458069   -263.504808                    
V 29   1784.488540  -7097.370715 -31284.435160     -0.073609                    
P 30  16256.722433   6673.093969  20019.950415   -358.656602                    
V 30 -20243.913365  15295.763327  11147.127595     -0.062221                    
P 31 -22438.345649   3258.128484 -14277.206829    -89.978921                    
V 31  13596.454534 -11692.580380 -23697.852198     -0.023654                    
P 32 -14862.412862 -10677.674781 -19216.894826     10.552612                    
V 32  -1499.492648 -24540.759976  14565.783036      0.024250                    
EOF
